STARLINK-2050_new
1 17357C 21005J   21326.13157587  .00001602  00000-0  10735-3 0  3267
2 17357  53.0515 263.1604 0001775  70.6531 258.1376 15.06387278    11
STARLINK-2050_old
1 27357C 21005J   21325.15920054  .00005994  00000-0  40153-3 0  3259
2 27357  53.0521 267.5255 0001818  69.5084  23.1028 15.06398185    19
